[{"OBJECT_NAME":"STARLINK-1559","OBJECT_ID":"2020-055BC","EPOCH":"2026-03-09T05:36:23.522976","MEAN_MOTION":15.29461733,"ECCENTRICITY":0.0004229,"INCLINATION":53.0254,"RA_OF_ASC_NODE":76.0659,"ARG_OF_PERICENTER":33.971,"MEAN_ANOMALY":326.1559,"EPHEMERIS_TYPE":0,"CLASSIFICATION_TYPE":"U","NORAD_CAT_ID":46077,"ELEMENT_SET_NO":999,"REV_AT_EPOCH":30951,"BSTAR":0.0014778793,"MEAN_MOTION_DOT":0.00042685,"MEAN_MOTION_DDOT":0},{"OBJECT_NAME":"STARLINK-32623","OBJECT_ID":"2024-224P","EPOCH":"2026-03-09T23:07:50.350944","MEAN_MOTION":15.27601078,"ECCENTRICITY":0.00025283,"INCLINATION":43.0036,"RA_OF_ASC_NODE":159.8747,"ARG_OF_PERICENTER":272.9256,"MEAN_ANOMALY":87.1306,"EPHEMERIS_TYPE":0,"CLASSIFICATION_TYPE":"U","NORAD_CAT_ID":62152,"ELEMENT_SET_NO":999,"REV_AT_EPOCH":7242,"BSTAR":0.00097576233,"MEAN_MOTION_DOT":0.00026704,"MEAN_MOTION_DDOT":0}]
